SUPERBIRD-C2            
1 33274U 08038A   20155.15537767 -.00000255  00000-0  00000+0 0  9994
2 33274   0.0163 287.1073 0002129 171.6084 353.2350  1.00269406 43275
AMC-21                  
1 33275U 08038B   20155.03001963  .00000032  00000-0  00000+0 0  9998
2 33275   0.0220  40.3664 0002796  39.2619  58.2169  1.00271335 43351
INMARSAT 4-F3           
1 33278U 08039A   20155.57053573 -.00000146  00000-0  00000+0 0  9992
2 33278   3.1303  12.6107 0002862  67.0640 280.2109  1.00273465 43167
NIMIQ 4                 
1 33373U 08044A   20155.46922285 -.00000224  00000-0  00000+0 0  9994
2 33373   0.0195 313.0920 0002302 124.1769 262.0301  1.00269892 42738
GALAXY 19 (G-19)        
1 33376U 08045A   20155.06433084 -.00000143  00000-0  00000+0 0  9998
2 33376   0.0159 314.5814 0003362 119.6810 103.8771  1.00273125 42728
ASTRA 1M                
1 33436U 08057A   20155.42618920  .00000116  00000-0  00000+0 0  9991
2 33436   0.0428 126.6425 0004641 336.8512 321.4600  1.00272638 42375
CIEL-2                  
1 33453U 08063A   20154.74204319  .00000055  00000-0  00000-0 0  9997
2 33453   0.0147 284.4334 0003173 135.8880 329.6216  1.00271955 42035
EUTELSAT HOT BIRD 13C   
1 33459U 08065A   20155.34458421  .00000083  00000-0  00000+0 0  9997
2 33459   0.0738  63.4646 0006032  19.2704 306.5741  1.00272096 42141
EUTELSAT 48D            
1 33460U 08065B   20155.41299520  .00000119  00000-0  00000+0 0  9990
2 33460   0.0502  69.3713 0002881  29.7236 350.0420  1.00277293 42003
FENGYUN 2E              
1 33463U 08066A   20153.78003729 -.00000208  00000-0  00000-0 0  9997
2 33463   4.3097  68.5669 0003168 309.0888 240.6099  1.00272148 41963
EXPRESS-AM44            
1 33595U 09007A   20155.41164713 -.00000093  00000-0  00000+0 0  9993
2 33595   0.0135 243.6245 0000477 245.8048 260.0838  1.00271617 41457
NSS-9                   
1 33749U 09008A   20155.16314167  .00000068  00000-0  00000+0 0  9998
2 33749   0.0148 348.5594 0002330  80.2795  65.0312  1.00271383 41454
EUTELSAT 33E            
1 33750U 09008B   20155.27681008  .00000152  00000-0  00000+0 0  9997
2 33750   0.0556  19.0149 0003875  51.2640 314.6360  1.00271280 41493
TELSTAR 11N             
1 34111U 09009A   20155.36231542 -.00000254  00000-0  00000+0 0  9998
2 34111   0.0107 322.2901 0002930  95.3824 287.4839  1.00275226 41319
EUTELSAT 10A            
1 34710U 09016A   20155.12859623  .00000064  00000-0  00000+0 0  9999
2 34710   0.0659  12.7153 0005326  58.7643 236.8445  1.00271493 40851
WGS F2 (USA 204)        
1 34713U 09017A   20155.09779720  .00000044  00000-0  00000+0 0  9996
2 34713   0.0163 343.5247 0000976 110.6771 253.2307  1.00269126 40837
SES-7 (PROTOSTAR 2)     
1 34941U 09027A   20155.43537530 -.00000349  00000-0  00000+0 0  9998
2 34941   0.0739  98.9830 0000408  96.9247 321.4055  1.00269995 40519
MEASAT-3A               
1 35362U 09032A   20155.41854939 -.00000245  00000-0  00000+0 0  9990
2 35362   0.0417 229.7073 0001468 264.2549   0.5521  1.00270232 40121
GOES 14                 
1 35491U 09033A   20155.56671786 -.00000098  00000-0  00000+0 0  9993
2 35491   0.2899  98.3242 0008044 118.8090 135.1244  1.00270392 40045
SIRIUS FM-5             
1 35493U 09034A   20155.03769639 -.00000204  00000-0  00000+0 0  9992
2 35493   0.0124 311.6809 0001278  68.8187 158.8831  1.00270860 39861
TERRESTAR-1             
1 35496U 09035A   20155.10451911 -.00000061  00000-0  00000+0 0  9996
2 35496   2.5349  17.0051 0002709  59.7701 101.8567  1.00272382 40044
ASIASAT 5               
1 35696U 09042A   20154.70970025 -.00000310  00000-0  00000+0 0  9990
2 35696   0.0280 289.8427 0001712 141.9879 175.7850  1.00267958 39554
JCSAT-RA (JCSAT-12)     
1 35755U 09044A   20155.50681030 -.00000035  00000-0  00000+0 0  9996
2 35755   0.0331 145.3216 0001918 288.3164 170.1079  1.00271946 39554
OPTUS D3                
1 35756U 09044B   20155.42413458 -.00000152  00000-0  00000+0 0  9995
2 35756   0.0301 358.4918 0004103  60.3252 142.2027  1.00268903 39522
PALAPA D                
1 35812U 09046A   20154.98661124 -.00000361  00000-0  00000+0 0  9997
2 35812   0.1435  91.3195 0002607  17.0867 251.6248  1.00269161 39563
NIMIQ 5                 
1 35873U 09050A   20155.04040071 -.00000261  00000-0  00000+0 0  9998
2 35873   0.0173   4.1468 0003008  90.4586  99.1937  1.00271480 39233
AMAZONAS 2              
1 35942U 09054A   20155.40161499 -.00000286  00000-0  00000+0 0  9994
2 35942   0.0626 133.4068 0004850 324.5344 237.9618  1.00272102 39076
COMSATBW-1              
1 35943U 09054B   20154.99564868  .00000021  00000-0  00000+0 0  9991
2 35943   0.0433 122.5762 0003736 315.9179 234.8770  1.00269531 39140
NSS-12                  
1 36032U 09058A   20155.09584360  .00000068  00000-0  00000+0 0  9997
2 36032   0.0153 329.1411 0002900 105.2061 269.1674  1.00272063 38818
THOR 6                  
1 36033U 09058B   20155.34187990 -.00000014  00000-0  00000+0 0  9996
2 36033   0.0108 323.9972 0002217 123.3036 287.1877  1.00271050 38862
INTELSAT 14 (IS-14)     
1 36097U 09064A   20155.05260562 -.00000277  00000-0  00000+0 0  9999
2 36097   0.0163 346.3387 0003596 102.8151 136.7444  1.00267766 38580
EUTELSAT 36B            
1 36101U 09065A   20154.97618924  .00000152  00000-0  00000+0 0  9996
2 36101   0.0662  11.8362 0005180  66.8841 200.4801  1.00270091 38696
INTELSAT 15 (IS-15)     
1 36106U 09067A   20154.78566010 -.00000189  00000-0  00000-0 0  9992
2 36106   0.0136 306.9691 0001350  85.8357 226.8690  1.00270609 19195
WGS F3 (USA 211)        
1 36108U 09068A   20155.43729778 -.00000100  00000-0  00000+0 0  9992
2 36108   0.0202 332.0626 0000459 134.6475 291.0590  1.00271202 38411
DIRECTV 12              
1 36131U 09075A   20154.56540844 -.00000106  00000-0  00000+0 0  9990
2 36131   0.0456 141.9706 0000647 213.7695 356.4981  1.00271201 38279
BEIDOU 3                
1 36287U 10001A   20155.10286977 -.00000285  00000-0  00000+0 0  9996
2 36287   1.4357  24.9928 0004902 103.4724 300.9775  1.00272478 38067
RADUGA-1M 2             
1 36358U 10002A   20155.41854939 -.00000188  00000-0  00000+0 0  9991
2 36358   0.0146 285.9146 0003085 167.3326  34.7684  1.00272505 37900
SDO                     
1 36395U 10005A   20155.45482057 -.00000053  00000-0  00000+0 0  9998
2 36395  30.3007 121.5416 0001744 344.1862 208.7151  1.00271433 37921
INTELSAT 16 (IS-16)     
1 36397U 10006A   20155.47035691 -.00000249  00000-0  00000+0 0  9998
2 36397   0.0141 320.7080 0002178 120.8953 263.9091  1.00270885 37632
GOES 15                 
1 36411U 10008A   20154.62521209  .00000050  00000-0  00000+0 0  9997
2 36411   0.1514 272.5138 0002791 165.5654 270.4653  1.00277262 37551
ECHOSTAR 14             
1 36499U 10010A   20154.57491171 -.00000003  00000-0  00000-0 0  9994
2 36499   0.0153 306.4619 0002887 125.8010 267.3053  1.00271697 24446
SES-1                   
1 36516U 10016A   20155.10652553 -.00000118  00000-0  00000+0 0  9999
2 36516   0.0154  32.1120 0002706  37.8257 119.4378  1.00271143 37023
ASTRA 3B                
1 36581U 10021A   20155.16769965  .00000133  00000-0  00000+0 0  9995
2 36581   0.0292 357.4509 0002941  78.3073 260.1722  1.00271509 36548
COMSATBW-2              
1 36582U 10021B   20155.33938462  .00000085  00000-0  00000+0 0  9991
2 36582   0.0327  73.8754 0003494  20.7154 293.0539  1.00275878 36885
BADR-5                  
1 36592U 10025A   20155.28035459  .00000141  00000-0  00000+0 0  9997
2 36592   0.0062  48.9848 0004925  62.4416 267.6929  1.00272831 36799
COMS 1                  
1 36744U 10032A   20155.43938816 -.00000348  00000-0  00000+0 0  9990
2 36744   0.0284  72.8620 0001173   5.1342 100.6854  1.00270516 36546
ARABSAT-5A              
1 36745U 10032B   20155.13269632  .00000150  00000-0  00000+0 0  9991
2 36745   0.0663  41.0959 0004637  61.0121 228.1819  1.00271359 36515
ECHOSTAR 15             
1 36792U 10034A   20155.40152775 -.00000286  00000-0  00000+0 0  9995
2 36792   0.0294  78.6731 0002306 324.5146 292.0280  1.00272236 36298
BEIDOU 5                
1 36828U 10036A   20154.77367530 -.00000062  00000-0  10000-3 0  9990
2 36828  54.1583 183.1178 0096658 234.5236 231.4660  1.00264685 36107
NILESAT 201             
1 36830U 10037A   20155.12528126 -.00000061  00000-0  00000+0 0  9998
2 36830   0.0552 143.2019 0006675 294.2633 212.6694  1.00271148 36178
RASCOM-QAF 1R           
1 36831U 10037B   20155.05540528  .00000015  00000-0  00000+0 0  9999
2 36831   0.0057  49.3073 0005254  24.7434 200.7480  1.00271722 36182
AEHF-1 (USA 214)        
1 36868U 10039A   20155.30045080  .00000024  00000-0  00000+0 0  9992
2 36868   2.7109  97.9180 0006023 335.9810 290.4963  1.00274860 36332
CHINASAT 6A (ZX 6A)     
1 37150U 10042A   20155.14402019 -.00000357  00000-0  00000+0 0  9992
2 37150   0.0754 115.1722 0000812 321.5078 352.3133  1.00275040 35793
QZS-1 (MICHIBIKI-1)     
1 37158U 10045A   20154.83672229 -.00000079  00000-0  00000+0 0  9991
2 37158  41.6142 143.7991 0758317 270.5748 278.0175  1.00277875 35603
XM-5                    
1 37185U 10053A   20155.03787087 -.00000209  00000-0  00000+0 0  9997
2 37185   0.0155 315.2029 0002244  85.9827 139.1954  1.00271788 35330
BSAT-3B                 
1 37207U 10056B   20155.40773323 -.00000354  00000-0  00000+0 0  9995
2 37207   0.0783 306.4915 0002016  76.0963 126.3673  1.00269952 35164
BEIDOU 6                
1 37210U 10057A   20155.59248278 -.00000117  00000-0  00000+0 0  9993
2 37210   0.8017  45.0810 0002814 106.1725 114.4765  1.00270425 35171
SKYTERRA 1              
1 37218U 10061A   20155.00317757 -.00000124  00000-0  00000+0 0  9999
2 37218   2.1626 359.4713 0002211  60.8764  91.3926  1.00270353 35110
ZHONGXING-20A           
1 37234U 10064A   20154.83672229 -.00000354  00000-0  00000-0 0  9994
2 37234   0.8301  97.2976 0004297 350.7556 231.2773  1.00275492 34862
